{"type": "FeatureCollection", "features": [ {"type": "Feature", "properties": {"norad_id": 32384, "name": "GPS BIIRM-5 (PRN 29)", "group": "gps-ops", "lat": 34.192126115470074, "lon": -49.840579120185915, "alt_km": 20218.941590073853, "timestamp": "2025-12-03T15:48:03.331070+00:00", "meta": {"OBJECT_NAME": "GPS BIIRM-5 (PRN 29)", "OBJECT_ID": "2007-062A", "EPOCH": "2025-12-02T20:24:02.738880", "MEAN_MOTION": 2.00576658, "ECCENTRICITY": 0.00322118, "INCLINATION": 55.191, "RA_OF_ASC_NODE": 282.0427, "ARG_OF_PERICENTER": 162.849, "MEAN_ANOMALY": 16.9412, "EPHEMERIS_TYPE": 0, "CLASSIFICATION_TYPE": "U", "NORAD_CAT_ID": 32384, "ELEMENT_SET_NO": 999, "REV_AT_EPOCH": 13157, "BSTAR": 0, "MEAN_MOTION_DOT": -4.3e-07, "MEAN_MOTION_DDOT": 0}, "tle": {"line1": "1 32384U 07062A   25336.85003170 -.00000043  00000+0  00000+0 0  9994", "line2": "2 32384  55.1910 282.0427 0032211 162.8490  16.9412  2.00576658131576"}}, "geometry": {"type": "Point", "coordinates": [-49.840579120185915, 34.192126115470074]}}, {"type": "Feature", "properties": {"norad_id": 32711, "name": "GPS BIIRM-6 (PRN 07)", "group": "gps-ops", "lat": -23.633897525247296, "lon": 139.50247760859082, "alt_km": 20133.23165700511, "timestamp": "2025-12-03T15:48:03.331080+00:00", "meta": {"OBJECT_NAME": "GPS BIIRM-6 (PRN 07)", "OBJECT_ID": "2008-012A", "EPOCH": "2025-12-02T16:51:27.111168", "MEAN_MOTION": 2.00565045, "ECCENTRICITY": 0.0202061, "INCLINATION": 54.4758, "RA_OF_ASC_NODE": 157.7736, "ARG_OF_PERICENTER": 244.8404, "MEAN_ANOMALY": 113.092, "EPHEMERIS_TYPE": 0, "CLASSIFICATION_TYPE": "U", "NORAD_CAT_ID": 32711, "ELEMENT_SET_NO": 999, "REV_AT_EPOCH": 12981, "BSTAR": 0, "MEAN_MOTION_DOT": 1.14e-06, "MEAN_MOTION_DDOT": 0}, "tle": {"line1": "1 32711U 08012A   25336.70239712  .00000114  00000+0  00000+0 0  9999", "line2": "2 32711  54.4758 157.7736 0202061 244.8404 113.0920  2.00565045129816"}}, "geometry": {"type": "Point", "coordinates": [139.50247760859082, -23.633897525247296]}}, {"type": "Feature", "properties": {"norad_id": 35752, "name": "GPS BIIRM-8 (PRN 05)", "group": "gps-ops", "lat": -10.270329298841705, "lon": 28.164615776003792, "alt_km": 20193.508899200966, "timestamp": "2025-12-03T15:48:03.331091+00:00", "meta": {"OBJECT_NAME": "GPS BIIRM-8 (PRN 05)", "OBJECT_ID": "2009-043A", "EPOCH": "2025-12-01T04:42:32.815296", "MEAN_MOTION": 2.00566259, "ECCENTRICITY": 0.00521242, "INCLINATION": 56.0822, "RA_OF_ASC_NODE": 35.2386, "ARG_OF_PERICENTER": 82.0997, "MEAN_ANOMALY": 288.3285, "EPHEMERIS_TYPE": 0, "CLASSIFICATION_TYPE": "U", "NORAD_CAT_ID": 35752, "ELEMENT_SET_NO": 999, "REV_AT_EPOCH": 11939, "BSTAR": 0, "MEAN_MOTION_DOT": -6.6e-07, "MEAN_MOTION_DDOT": 0}, "tle": {"line1": "1 35752U 09043A   25335.19621314 -.00000066  00000+0  00000+0 0  9994", "line2": "2 35752  56.0822  35.2386 0052124  82.0997 288.3285  2.00566259119397"}}, "geometry": {"type": "Point", "coordinates": [28.164615776003792, -10.270329298841705]}}, {"type": "Feature", "properties": {"norad_id": 36585, "name": "GPS BIIF-1  (PRN 25)", "group": "gps-ops", "lat": 50.61351333554174, "lon": -24.58264195450335, "alt_km": 19930.775841171395, "timestamp": "2025-12-03T15:48:03.331101+00:00", "meta": {"OBJECT_NAME": "GPS BIIF-1  (PRN 25)", "OBJECT_ID": "2010-022A", "EPOCH": "2025-12-03T06:19:07.093920", "MEAN_MOTION": 2.00552613, "ECCENTRICITY": 0.01257121, "INCLINATION": 54.3021, "RA_OF_ASC_NODE": 216.4561, "ARG_OF_PERICENTER": 64.9696, "MEAN_ANOMALY": 116.7502, "EPHEMERIS_TYPE": 0, "CLASSIFICATION_TYPE": "U", "NORAD_CAT_ID": 36585, "ELEMENT_SET_NO": 999, "REV_AT_EPOCH": 11366, "BSTAR": 0, "MEAN_MOTION_DOT": 7.1e-07, "MEAN_MOTION_DDOT": 0}, "tle": {"line1": "1 36585U 10022A   25337.26327655  .00000071  00000+0  00000+0 0  9994", "line2": "2 36585  54.3021 216.4561 0125712  64.9696 116.7502  2.00552613113660"}}, "geometry": {"type": "Point", "coordinates": [-24.58264195450335, 50.61351333554174]}}, {"type": "Feature", "properties": {"norad_id": 38833, "name": "GPS BIIF-3  (PRN 24)", "group": "gps-ops", "lat": -20.12071776834824, "lon": -12.682259478133155, "alt_km": 20545.83712853941, "timestamp": "2025-12-03T15:48:03.331112+00:00", "meta": {"OBJECT_NAME": "GPS BIIF-3  (PRN 24)", "OBJECT_ID": "2012-053A", "EPOCH": "2025-12-01T21:10:58.228896", "MEAN_MOTION": 2.00564835, "ECCENTRICITY": 0.01754817, "INCLINATION": 53.5559, "RA_OF_ASC_NODE": 151.6834, "ARG_OF_PERICENTER": 63.8436, "MEAN_ANOMALY": 297.9871, "EPHEMERIS_TYPE": 0, "CLASSIFICATION_TYPE": "U", "NORAD_CAT_ID": 38833, "ELEMENT_SET_NO": 999, "REV_AT_EPOCH": 9548, "BSTAR": 0, "MEAN_MOTION_DOT": 1.16e-06, "MEAN_MOTION_DDOT": 0}, "tle": {"line1": "1 38833U 12053A   25335.88261839  .00000116  00000+0  00000+0 0  9995", "line2": "2 38833  53.5559 151.6834 0175481  63.8436 297.9871  2.00564835 95485"}}, "geometry": {"type": "Point", "coordinates": [-12.682259478133155, -20.12071776834824]}}, {"type": "Feature", "properties": {"norad_id": 39166, "name": "GPS BIIF-4  (PRN 27)", "group": "gps-ops", "lat": -44.85510107621335, "lon": -127.91876578216844, "alt_km": 20297.24077109915, "timestamp": "2025-12-03T15:48:03.331122+00:00", "meta": {"OBJECT_NAME": "GPS BIIF-4  (PRN 27)", "OBJECT_ID": "2013-023A", "EPOCH": "2025-12-02T17:50:49.750368", "MEAN_MOTION": 2.00565046, "ECCENTRICITY": 0.01372969, "INCLINATION": 54.6608, "RA_OF_ASC_NODE": 276.9746, "ARG_OF_PERICENTER": 48.5033, "MEAN_ANOMALY": 312.6627, "EPHEMERIS_TYPE": 0, "CLASSIFICATION_TYPE": "U", "NORAD_CAT_ID": 39166, "ELEMENT_SET_NO": 999, "REV_AT_EPOCH": 9194, "BSTAR": 0, "MEAN_MOTION_DOT": -3.8e-07, "MEAN_MOTION_DDOT": 0}, "tle": {"line1": "1 39166U 13023A   25336.74363137 -.00000038  00000+0  00000+0 0  9997", "line2": "2 39166  54.6608 276.9746 0137296  48.5033 312.6627  2.00565046 91946"}}, "geometry": {"type": "Point", "coordinates": [-127.91876578216844, -44.85510107621335]}}, {"type": "Feature", "properties": {"norad_id": 39533, "name": "GPS BIIF-5  (PRN 30)", "group": "gps-ops", "lat": -41.439984436865586, "lon": 116.67419152484486, "alt_km": 20141.85700107286, "timestamp": "2025-12-03T15:48:03.331132+00:00", "meta": {"OBJECT_NAME": "GPS BIIF-5  (PRN 30)", "OBJECT_ID": "2014-008A", "EPOCH": "2025-12-02T17:43:01.654176", "MEAN_MOTION": 2.00573776, "ECCENTRICITY": 0.00789617, "INCLINATION": 53.6297, "RA_OF_ASC_NODE": 157.3327, "ARG_OF_PERICENTER": 226.3697, "MEAN_ANOMALY": 133.0142, "EPHEMERIS_TYPE": 0, "CLASSIFICATION_TYPE": "U", "NORAD_CAT_ID": 39533, "ELEMENT_SET_NO": 999, "REV_AT_EPOCH": 8574, "BSTAR": 0, "MEAN_MOTION_DOT": 1.12e-06, "MEAN_MOTION_DDOT": 0}, "tle": {"line1": "1 39533U 14008A   25336.73821359  .00000112  00000+0  00000+0 0  9995", "line2": "2 39533  53.6297 157.3327 0078961 226.3697 133.0142  2.00573776 85746"}}, "geometry": {"type": "Point", "coordinates": [116.67419152484486, -41.439984436865586]}}, {"type": "Feature", "properties": {"norad_id": 39741, "name": "GPS BIIF-6  (PRN 06)", "group": "gps-ops", "lat": 55.15747985749685, "lon": 87.61500573678602, "alt_km": 20257.624911147774, "timestamp": "2025-12-03T15:48:03.331142+00:00", "meta": {"OBJECT_NAME": "GPS BIIF-6  (PRN 06)", "OBJECT_ID": "2014-026A", "EPOCH": "2025-12-02T00:33:52.454592", "MEAN_MOTION": 2.0056192, "ECCENTRICITY": 0.00388896, "INCLINATION": 56.5877, "RA_OF_ASC_NODE": 339.1935, "ARG_OF_PERICENTER": 318.1232, "MEAN_ANOMALY": 41.6099, "EPHEMERIS_TYPE": 0, "CLASSIFICATION_TYPE": "U", "NORAD_CAT_ID": 39741, "ELEMENT_SET_NO": 999, "REV_AT_EPOCH": 8458, "BSTAR": 0, "MEAN_MOTION_DOT": -5.7e-07, "MEAN_MOTION_DDOT": 0}, "tle": {"line1": "1 39741U 14026A   25336.02352378 -.00000057  00000+0  00000+0 0  9997", "line2": "2 39741  56.5877 339.1935 0038889 318.1232  41.6099  2.00561920 84582"}}, "geometry": {"type": "Point", "coordinates": [87.61500573678602, 55.15747985749685]}}, {"type": "Feature", "properties": {"norad_id": 40105, "name": "GPS BIIF-7  (PRN 09)", "group": "gps-ops", "lat": 29.476382748042727, "lon": 119.35116246896744, "alt_km": 20166.7782484388, "timestamp": "2025-12-03T15:48:03.331153+00:00", "meta": {"OBJECT_NAME": "GPS BIIF-7  (PRN 09)", "OBJECT_ID": "2014-045A", "EPOCH": "2025-12-02T02:40:49.418112", "MEAN_MOTION": 2.00571797, "ECCENTRICITY": 0.00329353, "INCLINATION": 55.2223, "RA_OF_ASC_NODE": 96.323, "ARG_OF_PERICENTER": 119.6015, "MEAN_ANOMALY": 240.7039, "EPHEMERIS_TYPE": 0, "CLASSIFICATION_TYPE": "U", "NORAD_CAT_ID": 40105, "ELEMENT_SET_NO": 999, "REV_AT_EPOCH": 8212, "BSTAR": 0, "MEAN_MOTION_DOT": 7e-08, "MEAN_MOTION_DDOT": 0}, "tle": {"line1": "1 40105U 14045A   25336.11168308  .00000007  00000+0  00000+0 0  9996", "line2": "2 40105  55.2223  96.3230 0032935 119.6015 240.7039  2.00571797 82125"}}, "geometry": {"type": "Point", "coordinates": [119.35116246896744, 29.476382748042727]}}, {"type": "Feature", "properties": {"norad_id": 40294, "name": "GPS BIIF-8  (PRN 03)", "group": "gps-ops", "lat": 42.23190565177492, "lon": -177.82512711320706, "alt_km": 20088.996547255396, "timestamp": "2025-12-03T15:48:03.331163+00:00", "meta": {"OBJECT_NAME": "GPS BIIF-8  (PRN 03)", "OBJECT_ID": "2014-068A", "EPOCH": "2025-12-02T11:42:10.325664", "MEAN_MOTION": 2.00564029, "ECCENTRICITY": 0.00608197, "INCLINATION": 56.8498, "RA_OF_ASC_NODE": 38.5427, "ARG_OF_PERICENTER": 69.4176, "MEAN_ANOMALY": 291.2841, "EPHEMERIS_TYPE": 0, "CLASSIFICATION_TYPE": "U", "NORAD_CAT_ID": 40294, "ELEMENT_SET_NO": 999, "REV_AT_EPOCH": 8126, "BSTAR": 0, "MEAN_MOTION_DOT": -6.5e-07, "MEAN_MOTION_DDOT": 0}, "tle": {"line1": "1 40294U 14068A   25336.48761951 -.00000065  00000+0  00000+0 0  9998", "line2": "2 40294  56.8498  38.5427 0060819  69.4176 291.2841  2.00564029 81269"}}, "geometry": {"type": "Point", "coordinates": [-177.82512711320706, 42.23190565177492]}}]}